start=new Date('2022-01-27T00:00:00.000Z').valueOf();
sats=[{"TLE_LINE2":"2 48371  53.0552 260.4234 0001821  64.5024 295.6153 15.06401349 40579","ECCENTRICITY":"0.00018210","SITE":"AFETR","INCLINATION":"53.0552","APOAPSIS":"548.471","ARG_OF_PERICENTER":"64.5024","RCS_SIZE":"LARGE","TLE_LINE1":"1 48371U 21038U   22026.34070401  .00003078  00000-0  22545-3 0  9997","MEAN_ANOMALY":"295.6153","EPHEMERIS_TYPE":"0","SEMIMAJOR_AXIS":"6925.344","PERIAPSIS":"545.948","NORAD_CAT_ID":"48371","OBJECT_NAME":"STARLINK-2589","MEAN_MOTION_DDOT":"0.0000000000000","CENTER_NAME":"EARTH","RA_OF_ASC_NODE":"260.4234","MEAN_MOTION":"15.06401349","FILE":"3284266","TIME_SYSTEM":"UTC","LAUNCH_DATE":"2021-05-04","REF_FRAME":"TEME","DECAY_DATE":null,"GP_ID":"194680720","MEAN_ELEMENT_THEORY":"SGP4","ELEMENT_SET_NO":"999","CLASSIFICATION_TYPE":"U","OBJECT_ID":"2021-038U","COUNTRY_CODE":"US","MEAN_MOTION_DOT":"0.00003078","PERIOD":"95.592","EPOCH":"2022-01-26T08:10:36.826464","REV_AT_EPOCH":"4057","OBJECT_TYPE":"PAYLOAD","BSTAR":"0.00022545000000"},{"MEAN_ANOMALY":"301.4644","SEMIMAJOR_AXIS":"6925.340","EPHEMERIS_TYPE":"0","PERIAPSIS":"546.003","NORAD_CAT_ID":"48372","TLE_LINE2":"2 48372  53.0558 260.4368 0001736  58.6514 301.4644 15.06402796 40575","ECCENTRICITY":"0.00017360","SITE":"AFETR","INCLINATION":"53.0558","APOAPSIS":"548.407","ARG_OF_PERICENTER":"58.6514","RCS_SIZE":"LARGE","TLE_LINE1":"1 48372U 21038V   22026.33701681 -.00001049  00000-0 -51504-4 0  9994","CLASSIFICATION_TYPE":"U","ELEMENT_SET_NO":"999","OBJECT_ID":"2021-038V","COUNTRY_CODE":"US","MEAN_MOTION_DOT":"-0.00001049","EPOCH":"2022-01-26T08:05:18.252384","PERIOD":"95.592","REV_AT_EPOCH":"4057","BSTAR":"-0.00005150400000","OBJECT_TYPE":"PAYLOAD","OBJECT_NAME":"STARLINK-2572","MEAN_MOTION_DDOT":"0.0000000000000","CENTER_NAME":"EARTH","RA_OF_ASC_NODE":"260.4368","FILE":"3284266","MEAN_MOTION":"15.06402796","TIME_SYSTEM":"UTC","LAUNCH_DATE":"2021-05-04","REF_FRAME":"TEME","DECAY_DATE":null,"GP_ID":"194679968","MEAN_ELEMENT_THEORY":"SGP4"},{"TLE_LINE1":"1 48373U 21038W   22026.33332881 -.00001157  00000-0 -58822-4 0  9997","RCS_SIZE":"LARGE","TLE_LINE2":"2 48373  53.0538 260.4628 0001705  64.7197 295.3968 15.06393187 40577","ECCENTRICITY":"0.00017050","ARG_OF_PERICENTER":"64.7197","INCLINATION":"53.0538","SITE":"AFETR","APOAPSIS":"548.415","NORAD_CAT_ID":"48373","MEAN_ANOMALY":"295.3968","EPHEMERIS_TYPE":"0","SEMIMAJOR_AXIS":"6925.369","PERIAPSIS":"546.054","REF_FRAME":"TEME","DECAY_DATE":null,"MEAN_ELEMENT_THEORY":"SGP4","GP_ID":"194679719","CENTER_NAME":"EARTH","RA_OF_ASC_NODE":"260.4628","OBJECT_NAME":"STARLINK-2609","MEAN_MOTION_DDOT":"0.0000000000000","LAUNCH_DATE":"2021-05-04","FILE":"3284266","MEAN_MOTION":"15.06393187","TIME_SYSTEM":"UTC","EPOCH":"2022-01-26T07:59:59.609184","PERIOD":"95.593","REV_AT_EPOCH":"4057","OBJECT_TYPE":"PAYLOAD","BSTAR":"-0.00005882200000","CLASSIFICATION_TYPE":"U","ELEMENT_SET_NO":"999","MEAN_MOTION_DOT":"-0.00001157","COUNTRY_CODE":"US","OBJECT_ID":"2021-038W"},{"DECAY_DATE":null,"REF_FRAME":"TEME","GP_ID":"194686720","MEAN_ELEMENT_THEORY":"SGP4","MEAN_MOTION_DDOT":"0.0000000000000","OBJECT_NAME":"STARLINK-2604","RA_OF_ASC_NODE":"258.3809","CENTER_NAME":"EARTH","FILE":"3284420","TIME_SYSTEM":"UTC","MEAN_MOTION":"15.06395721","LAUNCH_DATE":"2021-05-04","REV_AT_EPOCH":"4123","EPOCH":"2022-01-26T19:03:27.610848","PERIOD":"95.592","BSTAR":"-0.00012923000000","OBJECT_TYPE":"PAYLOAD","CLASSIFICATION_TYPE":"U","ELEMENT_SET_NO":"999","OBJECT_ID":"2021-038X","MEAN_MOTION_DOT":"-0.00002206","COUNTRY_CODE":"US","RCS_SIZE":"LARGE","TLE_LINE1":"1 48374U 21038X   22026.79406957 -.00002206  00000-0 -12923-3 0  9991","ECCENTRICITY":"0.00019560","TLE_LINE2":"2 48374  53.0547 258.3809 0001956  75.5535 284.5671 15.06395721 41230","APOAPSIS":"548.581","INCLINATION":"53.0547","SITE":"AFETR","ARG_OF_PERICENTER":"75.5535","NORAD_CAT_ID":"48374","SEMIMAJOR_AXIS":"6925.362","EPHEMERIS_TYPE":"0","MEAN_ANOMALY":"284.5671","PERIAPSIS":"545.872"},{"DECAY_DATE":null,"REF_FRAME":"TEME","MEAN_ELEMENT_THEORY":"SGP4","GP_ID":"194686219","RA_OF_ASC_NODE":"258.4028","CENTER_NAME":"EARTH","MEAN_MOTION_DDOT":"0.0000000000000","OBJECT_NAME":"STARLINK-2603","LAUNCH_DATE":"2021-05-04","FILE":"3284420","MEAN_MOTION":"15.06407206","TIME_SYSTEM":"UTC","REV_AT_EPOCH":"4123","PERIOD":"95.592","EPOCH":"2022-01-26T18:58:09.700320","OBJECT_TYPE":"PAYLOAD","BSTAR":"0.00002444600000","ELEMENT_SET_NO":"999","CLASSIFICATION_TYPE":"U","MEAN_MOTION_DOT":"0.00000082","COUNTRY_CODE":"US","OBJECT_ID":"2021-038Y","TLE_LINE1":"1 48375U 21038Y   22026.79039005  .00000082  00000-0  24446-4 0  9990","RCS_SIZE":"LARGE","ECCENTRICITY":"0.00020050","TLE_LINE2":"2 48375  53.0533 258.4028 0002005  72.0937 288.0270 15.06407206 41230","ARG_OF_PERICENTER":"72.0937","APOAPSIS":"548.580","SITE":"AFETR","INCLINATION":"53.0533","NORAD_CAT_ID":"48375","SEMIMAJOR_AXIS":"6925.326","EPHEMERIS_TYPE":"0","MEAN_ANOMALY":"288.0270","PERIAPSIS":"545.803"},{"ARG_OF_PERICENTER":"66.8721","INCLINATION":"53.0540","SITE":"AFETR","APOAPSIS":"548.612","TLE_LINE2":"2 48376  53.0540 258.4252 0002074  66.8721 293.2486 15.06412438 41236","ECCENTRICITY":"0.00020740","TLE_LINE1":"1 48376U 21038Z   22026.78669504  .00000255  00000-0  36027-4 0  9993","RCS_SIZE":"LARGE","PERIAPSIS":"545.739","MEAN_ANOMALY":"293.2486","SEMIMAJOR_AXIS":"6925.310","EPHEMERIS_TYPE":"0","NORAD_CAT_ID":"48376","LAUNCH_DATE":"2021-05-04","FILE":"3284409","MEAN_MOTION":"15.06412438","TIME_SYSTEM":"UTC","CENTER_NAME":"EARTH","RA_OF_ASC_NODE":"258.4252","MEAN_MOTION_DDOT":"0.0000000000000","OBJECT_NAME":"STARLINK-2610","MEAN_ELEMENT_THEORY":"SGP4","GP_ID":"194686230","REF_FRAME":"TEME","DECAY_DATE":null,"COUNTRY_CODE":"US","MEAN_MOTION_DOT":"0.00000255","OBJECT_ID":"2021-038Z","CLASSIFICATION_TYPE":"U","ELEMENT_SET_NO":"999","BSTAR":"0.00003602700000","OBJECT_TYPE":"PAYLOAD","PERIOD":"95.591","EPOCH":"2022-01-26T18:52:50.451456","REV_AT_EPOCH":"4123"},{"TLE_LINE2":"2 48377  53.0552 258.4331 0001909  71.8285 288.2912 15.06412437 41232","ECCENTRICITY":"0.00019090","SITE":"AFETR","INCLINATION":"53.0552","APOAPSIS":"548.497","ARG_OF_PERICENTER":"71.8285","RCS_SIZE":"LARGE","TLE_LINE1":"1 48377U 21038AA  22026.78300608  .00000532  00000-0  54572-4 0  9994","MEAN_ANOMALY":"288.2912","SEMIMAJOR_AXIS":"6925.310","EPHEMERIS_TYPE":"0","PERIAPSIS":"545.853","NORAD_CAT_ID":"48377","MEAN_MOTION_DDOT":"0.0000000000000","OBJECT_NAME":"STARLINK-2499","CENTER_NAME":"EARTH","RA_OF_ASC_NODE":"258.4331","MEAN_MOTION":"15.06412437","FILE":"3284409","TIME_SYSTEM":"UTC","LAUNCH_DATE":"2021-05-04","REF_FRAME":"TEME","DECAY_DATE":null,"GP_ID":"194686731","MEAN_ELEMENT_THEORY":"SGP4","ELEMENT_SET_NO":"999","CLASSIFICATION_TYPE":"U","OBJECT_ID":"2021-038AA","COUNTRY_CODE":"US","MEAN_MOTION_DOT":"0.00000532","PERIOD":"95.591","EPOCH":"2022-01-26T18:47:31.725312","REV_AT_EPOCH":"4123","BSTAR":"0.00005457200000","OBJECT_TYPE":"PAYLOAD"},{"DECAY_DATE":null,"REF_FRAME":"TEME","GP_ID":"194680471","MEAN_ELEMENT_THEORY":"SGP4","MEAN_MOTION_DDOT":"0.0000000000000","OBJECT_NAME":"STARLINK-2526","CENTER_NAME":"EARTH","RA_OF_ASC_NODE":"260.2426","FILE":"3284266","TIME_SYSTEM":"UTC","MEAN_MOTION":"15.06406856","LAUNCH_DATE":"2021-05-04","PERIOD":"95.592","EPOCH":"2022-01-26T09:08:59.897184","REV_AT_EPOCH":"4058","BSTAR":"0.00022569000000","OBJECT_TYPE":"PAYLOAD","ELEMENT_SET_NO":"999","CLASSIFICATION_TYPE":"U","OBJECT_ID":"2021-038AB","COUNTRY_CODE":"US","MEAN_MOTION_DOT":"0.00003082","RCS_SIZE":"LARGE","TLE_LINE1":"1 48378U 21038AB  22026.38124881  .00003082  00000-0  22569-3 0  9991","TLE_LINE2":"2 48378  53.0529 260.2426 0001809  66.5401 293.5778 15.06406856 40587","ECCENTRICITY":"0.00018090","INCLINATION":"53.0529","SITE":"AFETR","APOAPSIS":"548.445","ARG_OF_PERICENTER":"66.5401","NORAD_CAT_ID":"48378","MEAN_ANOMALY":"293.5778","EPHEMERIS_TYPE":"0","SEMIMAJOR_AXIS":"6925.328","PERIAPSIS":"545.940"},{"NORAD_CAT_ID":"48379","PERIAPSIS":"545.996","MEAN_ANOMALY":"290.6210","EPHEMERIS_TYPE":"0","SEMIMAJOR_AXIS":"6925.321","TLE_LINE1":"1 48379U 21038AC  22026.37756183  .00000563  00000-0  56678-4 0  9997","RCS_SIZE":"LARGE","ARG_OF_PERICENTER":"69.4963","INCLINATION":"53.0542","SITE":"AFETR","APOAPSIS":"548.375","TLE_LINE2":"2 48379  53.0542 260.2538 0001718  69.4963 290.6210 15.06409133 40581","ECCENTRICITY":"0.00017180","OBJECT_TYPE":"PAYLOAD","BSTAR":"0.00005667800000","EPOCH":"2022-01-26T09:03:41.342112","PERIOD":"95.592","REV_AT_EPOCH":"4058","COUNTRY_CODE":"US","MEAN_MOTION_DOT":"0.00000563","OBJECT_ID":"2021-038AC","CLASSIFICATION_TYPE":"U","ELEMENT_SET_NO":"999","MEAN_ELEMENT_THEORY":"SGP4","GP_ID":"194680721","DECAY_DATE":null,"REF_FRAME":"TEME","LAUNCH_DATE":"2021-05-04","FILE":"3284266","MEAN_MOTION":"15.06409133","TIME_SYSTEM":"UTC","CENTER_NAME":"EARTH","RA_OF_ASC_NODE":"260.2538","OBJECT_NAME":"STARLINK-2612","MEAN_MOTION_DDOT":"0.0000000000000"},{"PERIOD":"95.592","EPOCH":"2022-01-26T19:12:42.259104","REV_AT_EPOCH":"4123","OBJECT_TYPE":"PAYLOAD","BSTAR":"0.00000847930000","CLASSIFICATION_TYPE":"U","ELEMENT_SET_NO":"999","COUNTRY_CODE":"US","MEAN_MOTION_DOT":"-0.00000155","OBJECT_ID":"2021-038AD","REF_FRAME":"TEME","DECAY_DATE":null,"MEAN_ELEMENT_THEORY":"SGP4","GP_ID":"194686385","CENTER_NAME":"EARTH","RA_OF_ASC_NODE":"258.3514","MEAN_MOTION_DDOT":"0.0000000000000","OBJECT_NAME":"STARLINK-2614","LAUNCH_DATE":"2021-05-04","FILE":"3284388","TIME_SYSTEM":"UTC","MEAN_MOTION":"15.06403000","NORAD_CAT_ID":"48380","MEAN_ANOMALY":"291.3674","SEMIMAJOR_AXIS":"6925.339","EPHEMERIS_TYPE":"0","PERIAPSIS":"545.959","TLE_LINE1":"1 48380U 21038AD  22026.80048911 -.00000155  00000-0  84793-5 0  9998","RCS_SIZE":"LARGE","TLE_LINE2":"2 48380  53.0546 258.3514 0001798  68.7507 291.3674 15.06403000 41235","ECCENTRICITY":"0.00017980","ARG_OF_PERICENTER":"68.7507","INCLINATION":"53.0546","SITE":"AFETR","APOAPSIS":"548.450"}];
